[{"OBJECT_NAME":"STARLINK-1810","OBJECT_ID":"2020-073AR","EPOCH":"2026-03-10T00:00:02.999808","MEAN_MOTION":15.46905484,"ECCENTRICITY":0.00036204,"INCLINATION":53.0474,"RA_OF_ASC_NODE":230.4969,"ARG_OF_PERICENTER":174.4348,"MEAN_ANOMALY":86.5459,"EPHEMERIS_TYPE":0,"CLASSIFICATION_TYPE":"U","NORAD_CAT_ID":46709,"ELEMENT_SET_NO":999,"REV_AT_EPOCH":575,"BSTAR":0.002131862,"MEAN_MOTION_DOT":0.00110175,"MEAN_MOTION_DDOT":0},{"OBJECT_NAME":"STARLINK-1888","OBJECT_ID":"2020-088BB","EPOCH":"2026-03-09T21:33:21.537216","MEAN_MOTION":15.48275914,"ECCENTRICITY":0.00048731,"INCLINATION":53.0534,"RA_OF_ASC_NODE":278.4893,"ARG_OF_PERICENTER":159.2034,"MEAN_ANOMALY":200.9172,"EPHEMERIS_TYPE":0,"CLASSIFICATION_TYPE":"U","NORAD_CAT_ID":47171,"ELEMENT_SET_NO":999,"REV_AT_EPOCH":29218,"BSTAR":0.0014211074,"MEAN_MOTION_DOT":0.00076565,"MEAN_MOTION_DDOT":0}]
